{"type": "FeatureCollection", "features": [ {"type": "Feature", "properties": {"norad_id": 33980, "name": "COSMOS 2251 DEB", "group": "cosmos-2251-debris", "lat": 73.9863716825162, "lon": 153.80201860223386, "alt_km": 698.638557571896, "timestamp": "2025-12-12T03:50:52.811592+00:00", "meta": {"OBJECT_NAME": "COSMOS 2251 DEB", "OBJECT_ID": "1993-036FP", "EPOCH": "2025-12-11T11:01:22.569600", "MEAN_MOTION": 14.58640756, "ECCENTRICITY": 0.00287631, "INCLINATION": 74.0216, "RA_OF_ASC_NODE": 61.836, "ARG_OF_PERICENTER": 207.3253, "MEAN_ANOMALY": 164.1222, "EPHEMERIS_TYPE": 0, "CLASSIFICATION_TYPE": "U", "NORAD_CAT_ID": 33980, "ELEMENT_SET_NO": 999, "REV_AT_EPOCH": 88776, "BSTAR": 0.0013410839, "MEAN_MOTION_DOT": 6.259e-05, "MEAN_MOTION_DDOT": 0}, "tle": {"line1": "1 33980U 93036FP  25345.45928900  .00006259  00000+0  13411-2 0  9993", "line2": "2 33980  74.0216  61.8360 0028763 207.3253 164.1222 14.58640756887767"}}, "geometry": {"type": "Point", "coordinates": [153.80201860223386, 73.9863716825162]}}, {"type": "Feature", "properties": {"norad_id": 33982, "name": "COSMOS 2251 DEB", "group": "cosmos-2251-debris", "lat": -54.85759201783637, "lon": -22.89583723981132, "alt_km": 711.5544634227253, "timestamp": "2025-12-12T03:50:52.811602+00:00", "meta": {"OBJECT_NAME": "COSMOS 2251 DEB", "OBJECT_ID": "1993-036FR", "EPOCH": "2025-12-11T12:21:44.639136", "MEAN_MOTION": 14.60204719, "ECCENTRICITY": 0.0075029, "INCLINATION": 74.071, "RA_OF_ASC_NODE": 2.269, "ARG_OF_PERICENTER": 47.109, "MEAN_ANOMALY": 105.107, "EPHEMERIS_TYPE": 0, "CLASSIFICATION_TYPE": "U", "NORAD_CAT_ID": 33982, "ELEMENT_SET_NO": 999, "REV_AT_EPOCH": 89141, "BSTAR": 0.00064354927, "MEAN_MOTION_DOT": 3.198e-05, "MEAN_MOTION_DDOT": 0}, "tle": {"line1": "1 33982U 93036FR  25345.51509999  .00003198  00000+0  64355-3 0  9998", "line2": "2 33982  74.0710   2.2690 0075029  47.1090 105.1070 14.60204719891410"}}, "geometry": {"type": "Point", "coordinates": [-22.89583723981132, -54.85759201783637]}}, {"type": "Feature", "properties": {"norad_id": 33983, "name": "COSMOS 2251 DEB", "group": "cosmos-2251-debris", "lat": -67.8804867208481, "lon": 12.854556445394998, "alt_km": 715.2382299889878, "timestamp": "2025-12-12T03:50:52.811612+00:00", "meta": {"OBJECT_NAME": "COSMOS 2251 DEB", "OBJECT_ID": "1993-036FS", "EPOCH": "2025-12-11T12:02:15.802656", "MEAN_MOTION": 14.50663245, "ECCENTRICITY": 0.0021346, "INCLINATION": 74.0494, "RA_OF_ASC_NODE": 149.3712, "ARG_OF_PERICENTER": 252.4588, "MEAN_ANOMALY": 163.0632, "EPHEMERIS_TYPE": 0, "CLASSIFICATION_TYPE": "U", "NORAD_CAT_ID": 33983, "ELEMENT_SET_NO": 999, "REV_AT_EPOCH": 88611, "BSTAR": 0.00094776946, "MEAN_MOTION_DOT": 3.707e-05, "MEAN_MOTION_DDOT": 0}, "tle": {"line1": "1 33983U 93036FS  25345.50157179  .00003707  00000+0  94777-3 0  9994", "line2": "2 33983  74.0494 149.3712 0021346 252.4588 163.0632 14.50663245886114"}}, "geometry": {"type": "Point", "coordinates": [12.854556445394998, -67.8804867208481]}}, {"type": "Feature", "properties": {"norad_id": 33984, "name": "COSMOS 2251 DEB", "group": "cosmos-2251-debris", "lat": -30.979711891513666, "lon": -21.692150411306233, "alt_km": 691.1122047533854, "timestamp": "2025-12-12T03:50:52.811622+00:00", "meta": {"OBJECT_NAME": "COSMOS 2251 DEB", "OBJECT_ID": "1993-036FT", "EPOCH": "2025-12-11T10:40:09.640992", "MEAN_MOTION": 14.6634728, "ECCENTRICITY": 0.00232092, "INCLINATION": 74.0099, "RA_OF_ASC_NODE": 349.6025, "ARG_OF_PERICENTER": 188.1593, "MEAN_ANOMALY": 322.4633, "EPHEMERIS_TYPE": 0, "CLASSIFICATION_TYPE": "U", "NORAD_CAT_ID": 33984, "ELEMENT_SET_NO": 999, "REV_AT_EPOCH": 89047, "BSTAR": 0.0015218196, "MEAN_MOTION_DOT": 8.417e-05, "MEAN_MOTION_DDOT": 0}, "tle": {"line1": "1 33984U 93036FT  25345.44455603  .00008417  00000+0  15218-2 0  9996", "line2": "2 33984  74.0099 349.6025 0023209 188.1593 322.4633 14.66347280890470"}}, "geometry": {"type": "Point", "coordinates": [-21.692150411306233, -30.979711891513666]}}, {"type": "Feature", "properties": {"norad_id": 33986, "name": "COSMOS 2251 DEB", "group": "cosmos-2251-debris", "lat": 21.9821563897498, "lon": -49.615712782951626, "alt_km": 718.7456598872204, "timestamp": "2025-12-12T03:50:52.811632+00:00", "meta": {"OBJECT_NAME": "COSMOS 2251 DEB", "OBJECT_ID": "1993-036FV", "EPOCH": "2025-12-11T15:15:08.358624", "MEAN_MOTION": 14.43195813, "ECCENTRICITY": 0.00403678, "INCLINATION": 74.0369, "RA_OF_ASC_NODE": 304.7237, "ARG_OF_PERICENTER": 17.6061, "MEAN_ANOMALY": 159.7526, "EPHEMERIS_TYPE": 0, "CLASSIFICATION_TYPE": "U", "NORAD_CAT_ID": 33986, "ELEMENT_SET_NO": 999, "REV_AT_EPOCH": 88012, "BSTAR": 0.0013075734, "MEAN_MOTION_DOT": 4.416e-05, "MEAN_MOTION_DDOT": 0}, "tle": {"line1": "1 33986U 93036FV  25345.63551341  .00004416  00000+0  13076-2 0  9990", "line2": "2 33986  74.0369 304.7237 0040367  17.6061 159.7526 14.43195813880120"}}, "geometry": {"type": "Point", "coordinates": [-49.615712782951626, 21.9821563897498]}}, {"type": "Feature", "properties": {"norad_id": 33990, "name": "COSMOS 2251 DEB", "group": "cosmos-2251-debris", "lat": -73.24440559625158, "lon": -179.84948973035043, "alt_km": 848.605362778455, "timestamp": "2025-12-12T03:50:52.811642+00:00", "meta": {"OBJECT_NAME": "COSMOS 2251 DEB", "OBJECT_ID": "1993-036FZ", "EPOCH": "2025-12-11T15:02:16.757376", "MEAN_MOTION": 13.4998725, "ECCENTRICITY": 0.04075421, "INCLINATION": 73.9289, "RA_OF_ASC_NODE": 287.7816, "ARG_OF_PERICENTER": 308.2913, "MEAN_ANOMALY": 246.9377, "EPHEMERIS_TYPE": 0, "CLASSIFICATION_TYPE": "U", "NORAD_CAT_ID": 33990, "ELEMENT_SET_NO": 999, "REV_AT_EPOCH": 82714, "BSTAR": 0.0021526984, "MEAN_MOTION_DOT": 2.27e-05, "MEAN_MOTION_DDOT": 0}, "tle": {"line1": "1 33990U 93036FZ  25345.62658284  .00002270  00000+0  21527-2 0  9994", "line2": "2 33990  73.9289 287.7816 0407542 308.2913 246.9377 13.49987250827149"}}, "geometry": {"type": "Point", "coordinates": [-179.84948973035043, -73.24440559625158]}}, {"type": "Feature", "properties": {"norad_id": 33992, "name": "COSMOS 2251 DEB", "group": "cosmos-2251-debris", "lat": -10.615402918970164, "lon": 161.93268575925546, "alt_km": 679.4635579088535, "timestamp": "2025-12-12T03:50:52.811653+00:00", "meta": {"OBJECT_NAME": "COSMOS 2251 DEB", "OBJECT_ID": "1993-036GB", "EPOCH": "2025-12-11T11:09:23.872032", "MEAN_MOTION": 14.66198499, "ECCENTRICITY": 0.00516429, "INCLINATION": 74.0245, "RA_OF_ASC_NODE": 340.1956, "ARG_OF_PERICENTER": 98.4568, "MEAN_ANOMALY": 22.4575, "EPHEMERIS_TYPE": 0, "CLASSIFICATION_TYPE": "U", "NORAD_CAT_ID": 33992, "ELEMENT_SET_NO": 999, "REV_AT_EPOCH": 89106, "BSTAR": 0.0013231117, "MEAN_MOTION_DOT": 7.405e-05, "MEAN_MOTION_DDOT": 0}, "tle": {"line1": "1 33992U 93036GB  25345.46485963  .00007405  00000+0  13231-2 0  9998", "line2": "2 33992  74.0245 340.1956 0051642  98.4568  22.4575 14.66198499891062"}}, "geometry": {"type": "Point", "coordinates": [161.93268575925546, -10.615402918970164]}}, {"type": "Feature", "properties": {"norad_id": 33994, "name": "COSMOS 2251 DEB", "group": "cosmos-2251-debris", "lat": 23.859497821333953, "lon": 4.2117547052304225, "alt_km": 770.1971019570883, "timestamp": "2025-12-12T03:50:52.811663+00:00", "meta": {"OBJECT_NAME": "COSMOS 2251 DEB", "OBJECT_ID": "1993-036GD", "EPOCH": "2025-12-11T01:03:03.885408", "MEAN_MOTION": 14.41212982, "ECCENTRICITY": 0.00236025, "INCLINATION": 74.0418, "RA_OF_ASC_NODE": 193.5481, "ARG_OF_PERICENTER": 328.1464, "MEAN_ANOMALY": 156.245, "EPHEMERIS_TYPE": 0, "CLASSIFICATION_TYPE": "U", "NORAD_CAT_ID": 33994, "ELEMENT_SET_NO": 999, "REV_AT_EPOCH": 88395, "BSTAR": 0.00012649986, "MEAN_MOTION_DOT": 3.83e-06, "MEAN_MOTION_DDOT": 0}, "tle": {"line1": "1 33994U 93036GD  25345.04379497  .00000383  00000+0  12650-3 0  9991", "line2": "2 33994  74.0418 193.5481 0023602 328.1464 156.2450 14.41212982883956"}}, "geometry": {"type": "Point", "coordinates": [4.2117547052304225, 23.859497821333953]}}, {"type": "Feature", "properties": {"norad_id": 33995, "name": "COSMOS 2251 DEB", "group": "cosmos-2251-debris", "lat": -60.79858960412678, "lon": -28.83696271442136, "alt_km": 797.2445722089406, "timestamp": "2025-12-12T03:50:52.811673+00:00", "meta": {"OBJECT_NAME": "COSMOS 2251 DEB", "OBJECT_ID": "1993-036GE", "EPOCH": "2025-12-11T09:58:47.980704", "MEAN_MOTION": 14.34763162, "ECCENTRICITY": 0.00602227, "INCLINATION": 74.0611, "RA_OF_ASC_NODE": 121.7736, "ARG_OF_PERICENTER": 136.5517, "MEAN_ANOMALY": 224.0405, "EPHEMERIS_TYPE": 0, "CLASSIFICATION_TYPE": "U", "NORAD_CAT_ID": 33995, "ELEMENT_SET_NO": 999, "REV_AT_EPOCH": 87500, "BSTAR": 0.0018313338, "MEAN_MOTION_DOT": 5.277e-05, "MEAN_MOTION_DDOT": 0}, "tle": {"line1": "1 33995U 93036GE  25345.41583311  .00005277  00000+0  18313-2 0  9993", "line2": "2 33995  74.0611 121.7736 0060222 136.5517 224.0405 14.34763162875001"}}, "geometry": {"type": "Point", "coordinates": [-28.83696271442136, -60.79858960412678]}}, {"type": "Feature", "properties": {"norad_id": 33999, "name": "COSMOS 2251 DEB", "group": "cosmos-2251-debris", "lat": -55.433600179731705, "lon": -152.81917550594858, "alt_km": 656.4610915012572, "timestamp": "2025-12-12T03:50:52.811683+00:00", "meta": {"OBJECT_NAME": "COSMOS 2251 DEB", "OBJECT_ID": "1993-036GJ", "EPOCH": "2025-12-11T02:13:00.473376", "MEAN_MOTION": 14.83299514, "ECCENTRICITY": 0.00445554, "INCLINATION": 73.9185, "RA_OF_ASC_NODE": 234.0623, "ARG_OF_PERICENTER": 130.1362, "MEAN_ANOMALY": 230.3733, "EPHEMERIS_TYPE": 0, "CLASSIFICATION_TYPE": "U", "NORAD_CAT_ID": 33999, "ELEMENT_SET_NO": 999, "REV_AT_EPOCH": 89226, "BSTAR": 0.0020650188, "MEAN_MOTION_DOT": 0.00017211, "MEAN_MOTION_DDOT": 0}, "tle": {"line1": "1 33999U 93036GJ  25345.09236659  .00017211  00000+0  20650-2 0  9999", "line2": "2 33999  73.9185 234.0623 0044555 130.1362 230.3733 14.83299514892261"}}, "geometry": {"type": "Point", "coordinates": [-152.81917550594858, -55.433600179731705]}}]}